{"fetched_at":"2026-07-23T07:05:27.639Z","source":"https://celestrak.org/NORAD/elements/gp.php?GROUP=stations&FORMAT=JSON","constellation":"tiangong","records":[{"OBJECT_NAME":"CSS (TIANHE)","OBJECT_ID":"2021-035A","EPOCH":"2026-07-22T10:58:54.030720","CLASSIFICATION_TYPE":"U","MEAN_MOTION":15.582491,"ECCENTRICITY":0.00011997,"INCLINATION":41.4671,"RA_OF_ASC_NODE":107.8074,"ARG_OF_PERICENTER":305.3687,"MEAN_ANOMALY":54.7038,"EPHEMERIS_TYPE":0,"NORAD_CAT_ID":48274,"ELEMENT_SET_NO":999,"REV_AT_EPOCH":29867,"BSTAR":0.00013441968,"MEAN_MOTION_DOT":0.00010144,"MEAN_MOTION_DDOT":0}]}
